#dP2021 11 29  0  0  0.00000000      96 __u+U ITR00 FIT  IAC
## 2186  86400.00000000   900.00000000 59547 0.0000000000000
+  113   C06C07C08C09C10C11C12C13C14C16C19C20C21C22C23C24C25
+        C26C27C28C29C30C32C33C34C35C36C37C38C39C40C41C42C43
+        C44C45C46E01E02E03E04E05E07E08E09E11E12E13E14E15E18
+        E19E21E24E25E26E27E30E31E33E36G01G02G03G04G05G06G07
+        G08G09G10G12G13G14G15G16G17G18G19G20G21G22G23G24G25
+        G26G27G28G29G30G31G32R01R02R03R04R05R07R08R09R11R12
+        R13R14R15R16R17R18R19R20R21R22R24  0  0  0  0  0  0
++         0  0  0  0  0  0  0  0  0  0  0  0  0  0  0  0  0
++         0  0  0  0  0  0  0  0  0  0  0  0  0  0  0  0  0
++         0  0  0  0  0  0  0  0  0  0  0  0  0  0  0  0  0
++         0  0  0  0  0  0  0  0  0  0  0  0  0  0  0  0  0
++         0  0  0  0  0  0  0  0  0  0  0  0  0  0  0  0  0
++         0  0  0  0  0  0  0  0  0  0  0  0  0  0  0  0  0
++         0  0  0  0  0  0  0  0  0  0  0  0  0  0  0  0  0
%c M  cc GPS ccc cccc cccc cccc cccc ccccc ccccc ccccc ccccc
%c cc cc ccc ccc cccc cccc cccc cccc ccccc ccccc ccccc ccccc
%f  0.0000000  0.000000000  0.00000000000  0.000000000000000
%f  0.0000000  0.000000000  0.00000000000  0.000000000000000
%i    0    0    0    0      0      0      0      0         0
%i    0    0    0    0      0      0      0      0         0
/* INFORMATION & ANALYSIS CENTER (IAC)      ULTRA-RAPID DATA
/* S/V CLOCKS ARE ALIGNED TO GNSS TIME                      
/* G:C1WC2W R:C1PC2P E:C1XC5X C:C2IC6I J:C1CC2S             
/* PCV:IGS14_2178 OL/AL:FES2004  NONE     YN ORB:CoN CLK:CoN
*  2021 11 29 21  0  0.00000000
PC06 -16892.203367  28877.849017 -25797.926955    561.024383
PC07  -7343.469607  40098.775488 -10540.943013    179.905139
PC08    -38.969468  23767.612260  34870.942146    -64.530207
PC09 -10818.824741  27781.072671 -29681.214698   -307.737710
PC10   -769.093888  41789.017589  -2958.503983    135.642624
PC11  16356.470023 -17459.279517 -14330.178856   -363.048740
PC12  25971.936073  -9931.633173   2549.073849   -421.838799
PC13   5097.431426  26804.008259  32353.054067   -193.318952
PC14   8255.317112 -25103.235869  -9031.482673 999999.999999
PC16 -22202.889409  28274.849653 -22091.873189      6.684471
PC19  -2014.800109  27826.455242   -235.580775    928.932064
PC20 -12306.147943  19615.950328  15563.107731   -791.951195
PC21  15828.557514    857.643012 -22958.492809   -941.497239
PC22   9829.715886  20206.655899 -16541.692696   -970.954491
PC23 -19492.133174 -19007.160783   6103.966766   -963.498574
PC24  15682.889158  -7971.775117  21660.102263   -956.066022
PC25  -4090.504865 -19483.342796  19538.950748   -817.340078
PC26  24563.701647   6302.620633  11682.074261    814.803241
PC27 -25470.448200   3228.616140 -10966.262566    637.358630
PC28 -13498.002150 -10580.742197 -22006.089533      3.121490
PC29  -5778.021955  18475.091943  20097.660699    480.980381
PC30 -22313.139302  15714.949873   5870.534139    487.523343
PC32 -15848.112431   -840.362947  22960.301894   -958.818591
PC33   1908.492197 -27845.692813    161.081247   -965.974337
PC34  21797.822558 -16059.572684  -6723.348040   -525.785433
PC35  13372.085282  10530.212139  22106.322572     23.507905
PC36   3215.995397  19444.410444 -19737.548641   -817.591383
PC37 -24529.312521  -7681.936480 -10815.145926   -901.303004
PC38 -10595.306007  20922.342007  35063.162366    193.048679
PC39 -25029.624530  29040.580415 -17748.281246     34.168388
PC40 -12623.465870  37172.690579 -15191.543446    222.147164
PC41  -9745.053950 -20488.278289  16284.273038   -915.472061
PC42  12667.045303 -18895.955329 -16134.301571   -937.873678
PC43   6444.176642 -18635.594866 -19742.456918   -957.571859
PC44  25293.932920  -3889.514633  11087.643098    482.074907
PC45  19685.138859  18894.525618  -5924.543234    613.950845
PC46 -14490.359225   8966.656590 -22088.454423    -34.574664
PE01  -9319.727543  16148.684776 -22987.268317   -527.595549
PE02   9238.368488 -16250.842236  22947.917483    263.597858
PE03  18057.298763 -23219.345055  -3371.916086   -501.192359
PE04  -4586.992521  25496.221898 -14325.969361   -910.244815
PE05  21153.003110  -7252.712863 -19399.640809   -230.194484
PE07 -11892.758266 -12731.364463  23927.355865   -612.339312
PE08   4228.501234 -25351.065632  14684.538536   5896.934776
PE09  11990.129614  12395.031338 -24062.238329   5446.737505
PE11  22624.678306  11212.936380  15438.223949   4989.423142
PE12   1787.903088  16204.097097  24710.496923   4885.333333
PE13 -22209.340289 -11365.166085 -15918.602272    424.198915
PE14 -12433.228789 -16330.153163 -24618.613256  -1657.513558
PE15  -1738.995433 -16114.928901 -24756.805144    778.117069
PE18  16593.316828   4295.637257  17591.599347  -1822.519937
PE19 -19120.379518  21870.336506   5693.311783    439.921215
PE21 -18768.909031  -3173.944605 -22661.111101   -702.433698
PE24  17419.078036  22498.241491   8208.538296  -1253.155898
PE25  18843.791010   3447.840557  22578.408326   -555.230031
PE26 -29407.798318    627.672363   3267.550151   -512.899482
PE27 -17902.639918 -21668.141814  -9248.860907   -175.900203
PE30  -5487.783271 -27105.964225  10518.303408    -70.077353
PE31   6534.860420  27274.151776  -9471.125614   -488.713141
PE33 -19674.357689  11357.628296  18985.139353   -461.991843
PE36  29517.206153    -29.937746  -2216.272912   -297.005980
PG01 -18205.679626 -13699.386964 -14205.569084    497.311086
PG02  -4240.772790  14957.790549  22205.829481   -643.932510
PG03 -12851.771426 -21864.910101   7957.068466    -26.766461
PG04  -9495.293197 -12018.237789  21695.352374   -200.566020
PG05   4644.955204  25257.155998   6293.566640    -62.741398
PG06 -19596.023430   7028.201532  16595.745999    130.106450
PG07 -26164.031988  -5946.956394    325.187243    284.690410
PG08    409.087646 -19460.843449 -17931.463801    -46.146584
PG09 -17878.634243   -573.803426  19568.048795   -361.212517
PG10  14010.765155  -5148.614314 -21837.566525   -257.317926
PG12  10274.984632  23705.048254   6203.601942   -133.565808
PG13  -9135.545982  20566.230808 -14137.464646    222.029984
PG14 -14578.792163   4811.826503 -21673.553406    -46.969894
PG15   2840.560978  19501.232554 -18060.312664   -102.812965
PG16    463.174066 -24732.442997   8758.709984   -432.428570
PG17 -21450.068220  11475.836928 -10251.769392    540.673594
PG18  26076.885699   5168.471200  -1293.810759    287.747647
PG19 -20811.454453  16144.925375  -2850.781693     85.750289
PG20  -2083.129453  21383.244186  15765.609554    517.876442
PG21 -10776.590724 -14733.230916 -18810.413462    152.419602
PG22 -10639.391280 -24455.537447   -403.197716   -453.055199
PG23  16767.795731   7379.235448 -19282.024280     27.326119
PG24  14758.224813  14662.510447 -17020.492764    271.482510
PG25  15942.879608  15229.304063  14740.125074    248.250556
PG26   8542.651124 -16360.484324  18926.087493    160.224536
PG27   9964.463123 -22025.915492 -10732.048905   -225.170374
PG28 -11033.421908  12977.098771 -19901.788602    453.018237
PG29  14822.950694   5488.912136  21313.630173   -447.370281
PG30 -24672.788181   1740.136687  -9923.103352   -495.429024
PG31  18246.325529  -8386.613091  17501.549517   -152.620051
PG32  20375.943539 -15090.883530  -7470.151077    -28.397812
PR01  10482.473736 -20627.347806 -10753.475284     88.794077
PR02   2007.470473 -23600.237541   9415.305427    501.719595
PR03  -7379.083677 -11688.054230  21459.825796     47.297288
PR04 -12235.011544   6569.623476  21419.289883    116.562009
PR05 -10554.822158  21205.407200   9506.696181     83.337546
PR07   7600.472673  11139.931615 -21632.750527    -39.607790
PR08  12303.270687  -6628.998318 -21283.830116    -62.272623
PR09   9840.588367  19053.280934 -13741.614470     26.167996
PR11  17466.176612   5286.920930  17828.674768 999999.999999
PR12   5331.018316 -10074.916007  22843.747580    282.483407
PR13  -9200.085706 -18762.177631  14611.002746    -64.161868
PR14 -18990.390919 -16749.569907  -3117.382241     71.537520
PR15 -17177.637144  -4902.231289 -18187.095840     99.904378
PR16  -3974.401999  11351.794489 -22532.001212    -25.888798
PR17 -16838.287508  -4394.675178 -18616.286469    479.250271
PR18 -24810.699292   4238.049757  -4263.717449     98.844446
PR19 -20567.651782   9802.157254  11465.144145   -168.841192
PR20  -1896.958257  10871.280750  23013.921962    -60.272634
PR21  17931.846862   3719.959030  17777.811069   -258.412982
PR22  24831.178987  -4533.265713   3325.884315   -148.309705
PR24    786.776157 -11212.685790 -22876.964469     69.062609
EOF
